TIANMU-1 08             
1 57400U 23101B   26066.00237819  .00000346  00000+0  14775-4 0  9993
2 57400  97.2717 118.7901 0006380 134.2174 225.9592 15.29204229146020
STARLINK-31810          
1 59799U 24093T   26068.43101755  .00001116  00000+0  50108-4 0  9991
2 59799  43.0048 210.5447 0002421 282.6093  77.4488 15.27570549102659
